COMMENT,ORIGINATOR,NORAD_CAT_ID,OBJECT_NAME,OBJECT_TYPE,CLASSIFICATION_TYPE,INTLDES,EPOCH,EPOCH_MICROSECONDS,MEAN_MOTION,ECCENTRICITY,INCLINATION,RA_OF_ASC_NODE,ARG_OF_PERICENTER,MEAN_ANOMALY,EPHEMERIS_TYPE,ELEMENT_SET_NO,REV_AT_EPOCH,BSTAR,MEAN_MOTION_DOT,MEAN_MOTION_DDOT,FILE,TLE_LINE0,TLE_LINE1,TLE_LINE2,OBJECT_ID,OBJECT_NUMBER,SEMIMAJOR_AXIS,PERIOD,APOGEE,PERIGEE,DECAYED
GENERATED VIA SPACETRACK.ORG API,18 SPCS,38778,ASTRA 2F,PAYLOAD,U,12051A,2024-09-22 21:14:12,732576,1.00269391,0.0004279,0.0747,254.8025,314.8684,139.2913,0,999,3479,0,1.39e-06,0,4502422,0 ASTRA 2F,1 38778U 12051A   24266.88486959  .00000139  00000-0  00000-0 0  9992,2 38778   0.0747 254.8025 0004279 314.8684 139.2913  1.00269391 34797,2012-051A,38778,42165.403,1436.131,35805.311,35769.226,0
GENERATED VIA SPACETRACK.ORG API,18 SPCS,38778,ASTRA 2F,PAYLOAD,U,12051A,2024-09-23 14:29:37,196736,1.00269851,0.0004305,0.0726,254.306,316.1873,38.0242,0,999,3480,0,1.37e-06,0,4503058,0 ASTRA 2F,1 38778U 12051A   24267.60390274  .00000137  00000-0  00000-0 0  9995,2 38778   0.0726 254.3060 0004305 316.1873  38.0242  1.00269851 34807,2012-051A,38778,42165.274,1436.125,35805.291,35768.987,0
GENERATED VIA SPACETRACK.ORG API,18 SPCS,38778,ASTRA 2F,PAYLOAD,U,12051A,2024-09-23 19:57:42,614208,1.00270003,0.0004313,0.0721,254.1638,316.7449,119.8545,0,999,4396,0,1.37e-06,0,4503217,0 ASTRA 2F,1 38778U 12051A   24267.83174322  .00000137  00000-0  00000+0 0  9993,2 38778   0.0721 254.1638 0004313 316.7449 119.8545  1.00270003 43967,2012-051A,38778,42165.232,1436.122,35805.282,35768.911,0
GENERATED VIA SPACETRACK.ORG API,18 SPCS,38778,ASTRA 2F,PAYLOAD,U,12051A,2024-09-23 20:58:42,729024,1.00270029,0.0004314,0.072,254.169,316.8062,135.08,0,999,3480,0,1.37e-06,0,4503348,0 ASTRA 2F,1 38778U 12051A   24267.87410566  .00000137  00000-0  00000-0 0  9991,2 38778   0.0720 254.1690 0004314 316.8062 135.0800  1.00270029 34802,2012-051A,38778,42165.224,1436.122,35805.279,35768.899,0
GENERATED VIA SPACETRACK.ORG API,18 SPCS,38778,ASTRA 2F,PAYLOAD,U,12051A,2024-09-24 12:48:21,879648,1.00270436,0.0004334,0.0701,253.7342,317.7933,12.5876,0,999,3481,0,1.36e-06,0,4504155,0 ASTRA 2F,1 38778U 12051A   24268.53358657  .00000136  00000-0  00000-0 0  9996,2 38778   0.0701 253.7342 0004334 317.7933  12.5876  1.00270436 34814,2012-051A,38778,42165.11,1436.116,35805.249,35768.701,0
GENERATED VIA SPACETRACK.ORG API,18 SPCS,38778,ASTRA 2F,PAYLOAD,U,12051A,2024-09-24 16:14:39,420960,1.00270538,0.0004338,0.0697,253.5237,318.2105,64.0944,0,999,3481,0,1.35e-06,0,4504444,0 ASTRA 2F,1 38778U 12051A   24268.67684515  .00000135  00000-0  00000-0 0  9995,2 38778   0.0697 253.5237 0004338 318.2105  64.0944  1.00270538 34811,2012-051A,38778,42165.082,1436.115,35805.238,35768.655,0
GENERATED VIA SPACETRACK.ORG API,18 SPCS,38778,ASTRA 2F,PAYLOAD,U,12051A,2024-09-25 04:15:26,789760,1.00270844,0.0004347,0.0684,253.1361,319.173,244.2086,0,999,4397,0,1.35e-06,0,4504613,0 ASTRA 2F,1 38778U 12051A   24269.17739340  .00000135  00000-0  00000+0 0  9997,2 38778   0.0684 253.1361 0004347 319.1730 244.2086  1.00270844 43971,2012-051A,38778,42164.996,1436.11,35805.19,35768.532,0
GENERATED VIA SPACETRACK.ORG API,18 SPCS,38778,ASTRA 2F,PAYLOAD,U,12051A,2024-09-25 12:50:14,614368,1.00271066,0.0004358,0.0675,252.953,319.5113,13.104,0,999,3482,0,1.34e-06,0,4505134,0 ASTRA 2F,1 38778U 12051A   24269.53489137  .00000134  00000-0  00000-0 0  9993,2 38778   0.0675 252.9530 0004358 319.5113  13.1040  1.00271066 34821,2012-051A,38778,42164.934,1436.107,35805.174,35768.423,0
GENERATED VIA SPACETRACK.ORG API,18 SPCS,38778,ASTRA 2F,PAYLOAD,U,12051A,2024-09-25 20:28:43,74048,1.00271271,0.0004359,0.0668,252.6329,320.1901,127.6769,0,999,3482,0,1.34e-06,0,4505447,0 ASTRA 2F,1 38778U 12051A   24269.85327632  .00000134  00000-0  00000-0 0  9999,2 38778   0.0668 252.6329 0004359 320.1901 127.6769  1.00271271 34827,2012-051A,38778,42164.876,1436.104,35805.121,35768.361,0
GENERATED VIA SPACETRACK.ORG API,18 SPCS,38778,ASTRA 2F,PAYLOAD,U,12051A,2024-09-26 05:59:56,955264,1.00271511,0.0004366,0.0657,252.1756,320.9775,270.5455,0,999,4398,0,1.34e-06,0,4506105,0 ASTRA 2F,1 38778U 12051A   24270.24996476  .00000134  00000-0  00000+0 0  9991,2 38778   0.0657 252.1756 0004366 320.9775 270.5455  1.00271511 43983,2012-051A,38778,42164.809,1436.101,35805.083,35768.265,0
GENERATED VIA SPACETRACK.ORG API,18 SPCS,38778,ASTRA 2F,PAYLOAD,U,12051A,2024-09-26 20:07:42,682080,1.00271876,0.0004372,0.0643,251.6548,321.7613,122.8032,0,999,3483,0,1.34e-06,0,4506475,0 ASTRA 2F,1 38778U 12051A   24270.83868845  .00000134  00000-0  00000-0 0  9995,2 38778   0.0643 251.6548 0004372 321.7613 122.8032  1.00271876 34836,2012-051A,38778,42164.706,1436.096,35805.006,35768.137,0
GENERATED VIA SPACETRACK.ORG API,18 SPCS,38778,ASTRA 2F,PAYLOAD,U,12051A,2024-09-27 07:50:42,850176,1.00272164,0.0004379,0.0631,251.1142,322.6255,298.712,0,999,4399,0,1.34e-06,0,4507066,0 ASTRA 2F,1 38778U 12051A   24271.32688484  .00000134  00000-0  00000+0 0  9998,2 38778   0.0631 251.1142 0004379 322.6255 298.7120  1.00272164 43996,2012-051A,38778,42164.626,1436.091,35804.955,35768.027,0
GENERATED VIA SPACETRACK.ORG API,18 SPCS,38778,ASTRA 2F,PAYLOAD,U,12051A,2024-09-27 12:53:32,369280,1.00272295,0.0004387,0.0625,250.9707,322.818,14.577,0,999,3484,0,1.34e-06,0,4507270,0 ASTRA 2F,1 38778U 12051A   24271.53718020  .00000134  00000-0  00000-0 0  9992,2 38778   0.0625 250.9707 0004387 322.8180  14.5770  1.00272295 34845,2012-051A,38778,42164.589,1436.09,35804.952,35767.956,0
GENERATED VIA SPACETRACK.ORG API,18 SPCS,38778,ASTRA 2F,PAYLOAD,U,12051A,2024-09-27 17:55:42,828672,1.00272422,0.0004385,0.0621,250.5869,323.2912,90.2386,0,999,3484,0,1.34e-06,0,4507483,0 ASTRA 2F,1 38778U 12051A   24271.74702348  .00000134  00000-0  00000-0 0  9991,2 38778   0.0621 250.5869 0004385 323.2912  90.2386  1.00272422 34848,2012-051A,38778,42164.553,1436.088,35804.908,35767.929,0
GENERATED VIA SPACETRACK.ORG API,18 SPCS,38778,ASTRA 2F,PAYLOAD,U,12051A,2024-09-28 01:18:42,553152,1.00272451,0.0004378,0.0614,250.44,323.684,201.0454,0,999,3484,0,1.35e-06,0,4508135,0 ASTRA 2F,1 38778U 12051A   24272.05465918  .00000135  00000-0  00000-0 0  9996,2 38778   0.0614 250.4400 0004378 323.6840 201.0454  1.00272451 34846,2012-051A,38778,42164.545,1436.087,35804.87,35767.951,0
GENERATED VIA SPACETRACK.ORG API,18 SPCS,38778,ASTRA 2F,PAYLOAD,U,12051A,2024-09-28 20:25:42,798720,1.00273026,0.0004399,0.0596,249.4606,325.3063,127.9418,0,999,4401,0,1.37e-06,0,4508355,0 ASTRA 2F,1 38778U 12051A   24272.85118980  .00000137  00000-0  00000+0 0  9999,2 38778   0.0596 249.4606 0004399 325.3063 127.9418  1.00273026 44015,2012-051A,38778,42164.384,1436.079,35804.797,35767.701,0
GENERATED VIA SPACETRACK.ORG API,18 SPCS,38778,ASTRA 2F,PAYLOAD,U,12051A,2024-09-28 20:25:42,798720,1.00273026,0.0004399,0.0596,249.4606,325.3063,127.9418,0,999,3485,0,1.37e-06,0,4508501,0 ASTRA 2F,1 38778U 12051A   24272.85118980  .00000137  00000-0  00000-0 0  9990,2 38778   0.0596 249.4606 0004399 325.3063 127.9418  1.00273026 34856,2012-051A,38778,42164.384,1436.079,35804.797,35767.701,0
GENERATED VIA SPACETRACK.ORG API,18 SPCS,38778,ASTRA 2F,PAYLOAD,U,12051A,2024-09-29 12:56:41,53056,1.00273514,0.0004406,0.0577,248.6528,326.0706,16.4107,0,999,3486,0,1.39e-06,0,4509172,0 ASTRA 2F,1 38778U 12051A   24273.53936404  .00000139  00000-0  00000-0 0  9997,2 38778   0.0577 248.6528 0004406 326.0706  16.4107  1.00273514 34860,2012-051A,38778,42164.247,1436.072,35804.69,35767.535,0
GENERATED VIA SPACETRACK.ORG API,18 SPCS,38778,ASTRA 2F,PAYLOAD,U,12051A,2024-09-29 20:22:42,758400,1.00273661,0.0004394,0.0571,248.2227,326.3961,128.3297,0,999,3486,0,1.4e-06,0,4509473,0 ASTRA 2F,1 38778U 12051A   24273.84910600  .00000140  00000-0  00000-0 0  9993,2 38778   0.0571 248.2227 0004394 326.3961 128.3297  1.00273661 34864,2012-051A,38778,42164.206,1436.07,35804.598,35767.544,0
GENERATED VIA SPACETRACK.ORG API,18 SPCS,38778,ASTRA 2F,PAYLOAD,U,12051A,2024-09-30 03:13:42,559104,1.00273797,0.0004392,0.0563,247.8166,326.9573,231.207,0,999,4402,0,1.41e-06,0,4509748,0 ASTRA 2F,1 38778U 12051A   24274.13452036  .00000141  00000-0  00000+0 0  9990,2 38778   0.0563 247.8166 0004392 326.9573 231.2070  1.00273797 44027,2012-051A,38778,42164.168,1436.068,35804.551,35767.514,0
GENERATED VIA SPACETRACK.ORG API,18 SPCS,38778,ASTRA 2F,PAYLOAD,U,12051A,2024-09-30 12:58:18,629760,1.00274021,0.0004409,0.0553,247.4186,327.5761,17.54,0,999,3487,0,1.43e-06,0,4510156,0 ASTRA 2F,1 38778U 12051A   24274.54049340  .00000143  00000-0  00000-0 0  9998,2 38778   0.0553 247.4186 0004409 327.5761  17.5400  1.00274021 34874,2012-051A,38778,42164.105,1436.065,35804.56,35767.38,0
GENERATED VIA SPACETRACK.ORG API,18 SPCS,38778,ASTRA 2F,PAYLOAD,U,12051A,2024-09-30 20:04:42,862080,1.00274166,0.0004405,0.0547,246.9973,328.0665,124.366,0,999,3487,0,1.44e-06,0,4510507,0 ASTRA 2F,1 38778U 12051A   24274.83660720  .00000144  00000-0  00000-0 0  9992,2 38778   0.0547 246.9973 0004405 328.0665 124.3660  1.00274166 34875,2012-051A,38778,42164.064,1436.063,35804.503,35767.356,0
GENERATED VIA SPACETRACK.ORG API,18 SPCS,38778,ASTRA 2F,PAYLOAD,U,12051A,2024-10-01 08:58:42,590784,1.00274896,0.0004597,0.0786,255.6184,318.4522,319.3957,0,999,4403,0,1.47e-06,0,4511109,0 ASTRA 2F,1 38778U 12051A   24275.37410406  .00000147  00000-0  00000+0 0  9998,2 38778   0.0786 255.6184 0004597 318.4522 319.3957  1.00274896 44032,2012-051A,38778,42163.86,1436.052,35805.108,35766.342,0
GENERATED VIA SPACETRACK.ORG API,18 SPCS,38778,ASTRA 2F,PAYLOAD,U,12051A,2024-10-01 08:58:42,590784,1.00274896,0.0004597,0.0786,255.6184,318.4522,319.3957,0,999,3488,0,1.46e-06,0,4511209,0 ASTRA 2F,1 38778U 12051A   24275.37410406  .00000146  00000-0  00000-0 0  9998,2 38778   0.0786 255.6184 0004597 318.4522 319.3957  1.00274896 34884,2012-051A,38778,42163.86,1436.052,35805.108,35766.342,0
